NORAD_CAT_ID,OBJECT_NAME,OBJECT_TYPE,EPOCH,MEAN_MOTION,ECCENTRICITY,INCLINATION,RA_OF_ASC_NODE,ARG_OF_PERICENTER,MEAN_ANOMALY,BSTAR,MEAN_MOTION_DOT,MEAN_MOTION_DDOT,TLE_LINE0,TLE_LINE1,TLE_LINE2,SEMIMAJOR_AXIS,PERIOD,APOGEE,PERIGEE,DECAYED
53017.0,STARLINK-4281,PAYLOAD,2022-09-13 16:00:00,15.53396994,0.0001699999999999,53.2174,43.0586,32.4036,314.8358,-0.0181479999999999,-0.01061542,0.0,0 STARLINK-4281,1 53017U 22076AH  22256.66667824 -.01061542  00000-0 -18148-1 0  9999,2 53017  53.2174  43.0586 0001700  32.4036 314.8358 15.53396994 11213,6784.953,92.7,407.972,405.665,0.0
53017.0,STARLINK-4281,PAYLOAD,2022-09-13 22:00:00,15.52827166,0.0001685,53.2173,41.8579,32.547,273.2787,-0.0185,-0.01060006,0.0,0 STARLINK-4281,1 53017U 22076AH  22256.91667824 -.01060006  00000-0 -18500-1 0  9993,2 53017  53.2173  41.8579 0001685  32.5470 273.2787 15.52827166  1307,6786.613,92.734,409.622,407.335,0.0
53017.0,STARLINK-4281,PAYLOAD,2022-09-14 14:00:01,15.51372801,0.0001482,53.2175,38.6606,39.7874,33.0589,-0.021221,-0.01144318,0.0,0 STARLINK-4281,1 53017U 22076AH  22257.58334491 -.01144318  00000-0 -21221-1 0  9991,2 53017  53.2175  38.6606 0001482  39.7874  33.0589 15.51372801 11354,6790.854,92.821,413.725,411.713,0.0
53017.0,STARLINK-4281,PAYLOAD,2022-09-14 20:00:01,15.50622752,0.00014,53.2174,37.4634,37.5382,352.0681,-0.013731,-0.00739458,0.0,0 STARLINK-4281,1 53017U 22076AH  22257.83334491 -.00739458  00000-0 -13731-1 0  9990,2 53017  53.2174  37.4634 0001400  37.5382 352.0681 15.50622752 11394,6793.044,92.866,415.86,413.958,0.0
53017.0,STARLINK-4281,PAYLOAD,2022-09-14 22:00:00,15.50421169,0.0001846,53.2166,37.0658,29.8762,105.1796,-0.011101,-0.0059607,0.0,0 STARLINK-4281,1 53017U 22076AH  22257.91667824 -.00596070  00000-0 -11101-1 0  9998,2 53017  53.2166  37.0658 0001846  29.8762 105.1796 15.50421169  1300,6793.632,92.878,416.752,414.24300000000005,0.0
53017.0,STARLINK-4281,PAYLOAD,2022-09-15 06:00:00,15.49887848,0.0001669,53.2172,35.4683,33.8132,162.5587,-9.5814e-05,-5.886e-05,0.0,0 STARLINK-4281,1 53017U 22076AH  22258.25001157 -.00005886  00000-0 -95814-4 0  9993,2 53017  53.2172  35.4683 0001669  33.8132 162.5587 15.49887848 11467,6795.191,92.91,418.19,415.922,0.0
53017.0,STARLINK-4281,PAYLOAD,2022-09-15 14:00:01,15.49946416,0.0001443999999999,53.2155,33.8843,20.3035,236.9752,-0.00013805,-8.296e-05,0.0,0 STARLINK-4281,1 53017U 22076AH  22258.58334491 -.00008296  00000-0 -13805-3 0  9996,2 53017  53.2155  33.8843 0001444  20.3035 236.9752 15.49946416  1301,6795.02,92.906,417.866,415.903,0.0
53017.0,STARLINK-4281,PAYLOAD,2022-09-15 22:00:00,15.49946499,0.000167,53.2154,32.2915,21.1157,297.1464,-0.0011279999999999,-0.00064091,0.0,0 STARLINK-4281,1 53017U 22076AH  22258.91667824 -.00064091  00000-0 -11280-2 0  9991,2 53017  53.2154  32.2915 0001670  21.1157 297.1464 15.49946499 11567,6795.019,92.906,418.019,415.75,0.0
53017.0,STARLINK-4281,PAYLOAD,2022-09-16 14:00:01,15.49866619,0.0001826,53.2163,29.1045,34.4593,45.6488,-0.0002694,-0.00015702,0.0,0 STARLINK-4281,1 53017U 22076AH  22259.58334491 -.00015702  00000-0 -26940-3 0  9991,2 53017  53.2163  29.1045 0001826  34.4593  45.6488 15.49866619  1308,6795.253000000002,92.911,418.359,415.877,0.0
53017.0,STARLINK-4281,PAYLOAD,2022-09-16 22:00:00,15.49861978,0.0001958,53.2159,27.5122,31.9107,109.0574,0.00014278,7.653e-05,0.0,0 STARLINK-4281,1 53017U 22076AH  22259.91667824  .00007653  00000-0  14278-3 0  9992,2 53017  53.2159  27.5122 0001958  31.9107 109.0574 15.49861978 11710,6795.266,92.911,418.462,415.801,0.0
53017.0,STARLINK-4281,PAYLOAD,2022-09-17 14:00:01,15.49888095,0.0002013,53.2159,24.3261,34.6054,228.1514,-0.00011426,-6.932e-05,0.0,0 STARLINK-4281,1 53017U 22076AH  22260.58334491 -.00006932  00000-0 -11426-3 0  9991,2 53017  53.2159  24.3261 0002013  34.6054 228.1514 15.49888095  1303,6795.19,92.91,418.423,415.687,0.0
53017.0,STARLINK-4281,PAYLOAD,2022-09-17 22:00:00,15.49899329,0.0002073999999999,53.2155,22.7329,32.188,291.4721,-7.9668e-05,-4.973e-05,0.0,0 STARLINK-4281,1 53017U 22076AH  22260.91667824 -.00004973  00000-0 -79668-4 0  9993,2 53017  53.2155  22.7329 0002074  32.1880 291.4721 15.49899329  1308,6795.156999999997,92.909,418.432,415.61300000000006,0.0
53017.0,STARLINK-4281,PAYLOAD,2022-09-18 06:00:00,15.49919337,0.0001931,53.2166,21.1349,36.3742,348.213,-0.00088196,-0.00050251,0.0,0 STARLINK-4281,1 53017U 22076AH  22261.25001157 -.00050251  00000-0 -88196-3 0  9997,2 53017  53.2166  21.1349 0001931  36.3742 348.2130 15.49919337 11925,6795.099,92.908,418.276,415.652,0.0
53017.0,STARLINK-4281,PAYLOAD,2022-09-18 14:00:01,15.49929432,0.0002189,53.2172,19.5404,33.1999,52.3973,-0.012346,-0.00647205,0.0,0 STARLINK-4281,1 53017U 22076AH  22261.58335648 -.00647205  00000-0 -12346-1 0  9991,2 53017  53.2172  19.5404 0002189  33.1999  52.3973 15.49929432 11970,6795.069,92.907,418.422,415.447,0.0
53017.0,STARLINK-4281,PAYLOAD,2022-09-18 22:00:00,15.49497804,0.0001786999999999,53.2172,17.9452,36.8198,109.4107,-0.020828,-0.01058849,0.0,0 STARLINK-4281,1 53017U 22076AH  22261.91667824 -.01058849  00000-0 -20828-1 0  9997,2 53017  53.2172  17.9452 0001787  36.8198 109.4107 15.49497804 12022,6796.331,92.933,419.411,416.982,0.0
53017.0,STARLINK-4281,PAYLOAD,2022-09-19 14:00:01,15.47977912,0.0002166999999999,53.2172,14.7638,26.1547,239.1311,-0.021943,-0.01057464,0.0,0 STARLINK-4281,1 53017U 22076AH  22262.58334491 -.01057464  00000-0 -21943-1 0  9993,2 53017  53.2172  14.7638 0002167  26.1547 239.1311 15.47977912  1304,6800.779,93.025,424.11800000000005,421.17,0.0
53017.0,STARLINK-4281,PAYLOAD,2022-09-19 22:00:00,15.47220809,0.0001431999999999,53.2172,13.1752,42.8793,280.5647,-0.022622,-0.01061053,0.0,0 STARLINK-4281,1 53017U 22076AH  22262.91667824 -.01061053  00000-0 -22622-1 0  9993,2 53017  53.2172  13.1752 0001432  42.8793 280.5647 15.47220809 12182,6802.996999999999,93.07,425.837,423.888,0.0
53017.0,STARLINK-4281,PAYLOAD,2022-09-20 14:00:01,15.45701102,0.0002131999999999,53.2173,10.0049,25.8133,51.2098,-0.023805,-0.01059463,0.0,0 STARLINK-4281,1 53017U 22076AH  22263.58334491 -.01059463  00000-0 -23805-1 0  9994,2 53017  53.2173  10.0049 0002132  25.8133  51.2098 15.45701102  1308,6807.456,93.162,430.772,427.869,0.0
53017.0,STARLINK-4281,PAYLOAD,2022-09-20 22:00:01,15.4494012,0.0001621999999999,53.2173,8.4214,42.6139,89.8954,-0.024374,-0.01056806,0.0,0 STARLINK-4281,1 53017U 22076AH  22263.91668981 -.01056806  00000-0 -24374-1 0  9995,2 53017  53.2173   8.4214 0001622  42.6139  89.8954 15.44940120  1301,6809.691,93.207,432.661,430.451,0.0
53017.0,STARLINK-4281,PAYLOAD,2022-09-21 22:00:00,15.42663209,0.0001501999999999,53.2173,3.6841,44.3845,248.8461,-0.026413,-0.01074218,0.0,0 STARLINK-4281,1 53017U 22076AH  22264.91667824 -.01074218  00000-0 -26413-1 0  9994,2 53017  53.2173   3.6841 0001502  44.3845 248.8461 15.42663209  1302,6816.39,93.345,439.279,437.231,0.0
53017.0,STARLINK-4281,PAYLOAD,2022-09-22 14:00:01,15.41184504,0.000164,53.2175,0.5369,42.2337,353.6036,-0.029319,-0.01129511,0.0,0 STARLINK-4281,1 53017U 22076AH  22265.58334491 -.01129511  00000-0 -29319-1 0  9994,2 53017  53.2175   0.5369 0001640  42.2337 353.6036 15.41184504  1309,6820.749,93.435,443.733,441.496,0.0
53017.0,STARLINK-4281,PAYLOAD,2022-09-22 22:00:00,15.40386682,0.0001758,53.217,358.9642,35.8935,49.9074,-0.028558,-0.01075971,0.0,0 STARLINK-4281,1 53017U 22076AH  22265.91667824 -.01075971  00000-0 -28558-1 0  9994,2 53017  53.2170 358.9642 0001758  35.8935  49.9074 15.40386682 12646,6823.104,93.483,446.169,443.77,0.0
53017.0,STARLINK-4281,PAYLOAD,2022-09-23 14:00:01,15.38863308,0.0002026,53.2174,355.8257,35.0546,147.8995,-0.029818,-0.01068858,0.0,0 STARLINK-4281,1 53017U 22076AH  22266.58334491 -.01068858  00000-0 -29818-1 0  9995,2 53017  53.2174 355.8257 0002026  35.0546 147.8995 15.38863308  1300,6827.606,93.576,450.855,448.088,0.0
53017.0,STARLINK-4281,PAYLOAD,2022-09-23 22:00:00,15.38105516,0.000155,53.2173,354.2583,50.5682,179.5929,-0.030674,-0.01072092,0.0,0 STARLINK-4281,1 53017U 22076AH  22266.91667824 -.01072092  00000-0 -30674-1 0  9998,2 53017  53.2173 354.2583 0001550  50.5682 179.5929 15.38105516 12804,6829.849,93.622,452.772,450.655,0.0
53017.0,STARLINK-4281,PAYLOAD,2022-09-24 14:00:01,15.36585947,0.0001783,53.2174,351.13199999999995,34.3527,287.5472,-0.032182,-0.01070595,0.0,0 STARLINK-4281,1 53017U 22076AH  22267.58335648 -.01070595  00000-0 -32182-1 0  9990,2 53017  53.2174 351.1320 0001783  34.3527 287.5472 15.36585947  1300,6834.351,93.714,457.434,454.997,0.0
53017.0,STARLINK-4281,PAYLOAD,2022-09-24 22:00:00,15.35826568,0.000147,53.2174,349.5697,42.1019,324.2037,-0.033005,-0.01071181,0.0,0 STARLINK-4281,1 53017U 22076AH  22267.91667824 -.01071181  00000-0 -33005-1 0  9998,2 53017  53.2174 349.5697 0001470  42.1019 324.2037 15.35826568 12959,6836.603,93.761,459.473,457.463,0.0
53017.0,STARLINK-4281,PAYLOAD,2022-09-25 14:00:01,15.34306948,0.0001858,53.2175,346.4544,35.7451,56.7591,-0.034598,-0.01069596,0.0,0 STARLINK-4281,1 53017U 22076AH  22268.58334491 -.01069596  00000-0 -34598-1 0  9998,2 53017  53.2175 346.4544 0001858  35.7451  56.7591 15.34306948  1308,6841.1169999999975,93.853,464.253,461.711,0.0
53017.0,STARLINK-4281,PAYLOAD,2022-09-25 22:00:01,15.33546691,0.0001836,53.2174,344.8974,37.057,97.2431,-0.035397,-0.01068194,0.0,0 STARLINK-4281,1 53017U 22076AH  22268.91668981 -.01068194  00000-0 -35397-1 0  9990,2 53017  53.2174 344.8974 0001836  37.0570  97.2431 15.33546691 13103,6843.378000000002,93.9,466.499,463.986,0.0
53017.0,STARLINK-4281,PAYLOAD,2022-09-26 14:00:01,15.32026058,0.0002029,53.2175,341.7929,35.3863,179.5729,-0.037011,-0.01064737,0.0,0 STARLINK-4281,1 53017U 22076AH  22269.58334491 -.01064737  00000-0 -37011-1 0  9994,2 53017  53.2175 341.7929 0002029  35.3863 179.5729 15.32026058  1303,6847.905,93.993,471.16,468.381,0.0
